[{"OBJECT_NAME":"NESS","OBJECT_ID":"2023-155E","EPOCH":"2026-03-09T18:20:54.923712","MEAN_MOTION":15.26794015,"ECCENTRICITY":0.00068914,"INCLINATION":97.5941,"RA_OF_ASC_NODE":152.6141,"ARG_OF_PERICENTER":179.8776,"MEAN_ANOMALY":180.2465,"EPHEMERIS_TYPE":0,"CLASSIFICATION_TYPE":"U","NORAD_CAT_ID":58020,"ELEMENT_SET_NO":999,"REV_AT_EPOCH":13330,"BSTAR":0.00074047066,"MEAN_MOTION_DOT":0.00019469,"MEAN_MOTION_DDOT":0},{"OBJECT_NAME":"STARLINK-31189","OBJECT_ID":"2024-012A","EPOCH":"2026-03-09T07:40:21.589248","MEAN_MOTION":15.27572094,"ECCENTRICITY":7.65e-5,"INCLINATION":43.0004,"RA_OF_ASC_NODE":166.9767,"ARG_OF_PERICENTER":234.6094,"MEAN_ANOMALY":125.4687,"EPHEMERIS_TYPE":0,"CLASSIFICATION_TYPE":"U","NORAD_CAT_ID":58787,"ELEMENT_SET_NO":999,"REV_AT_EPOCH":12118,"BSTAR":-5.93227e-7,"MEAN_MOTION_DOT":-2.78e-6,"MEAN_MOTION_DDOT":0}]
